IRIDIUM 155             
1 43573U 18061E   25285.15377831  .00000292  00000+0  97277-4 0  9993
2 43573  86.4012 160.3604 0002276  79.3971 280.7481 14.34217468377803
IRIDIUM 154             
1 43574U 18061F   25285.41384670  .00000356  00000+0  12009-3 0  9992
2 43574  86.4016 160.3731 0002107  83.0692 277.0743 14.34217248377899
IRIDIUM 163             
1 43575U 18061G   25285.18549718  .00000277  00000+0  91762-4 0  9999
2 43575  86.4015 160.3915 0002340  87.8175 272.3289 14.34212477377836
IRIDIUM 156             
1 43576U 18061H   25285.16012141 -.00000047  00000+0 -23960-4 0  9995
2 43576  86.4017 160.4089 0002065  75.3598 284.7827 14.34217106377825
IRIDIUM 164             
1 43577U 18061J   25285.62947254 -.00000010  00000+0 -10665-4 0  9997
2 43577  86.4015 160.2492 0001796  80.9373 279.2026 14.34216847377936
IRIDIUM 159             
1 43578U 18061K   25285.38845475  .00000311  00000+0  10413-3 0  9995
2 43578  86.4012 160.2924 0002119  88.1380 272.0059 14.34218203377869
IRIDIUM 180             
1 43922U 19002A   25285.52748724 -.00000002  00000+0 -78139-5 0  9999
2 43922  86.3915  97.1415 0002111  91.1892 268.9545 14.34217449353498
IRIDIUM 176             
1 43923U 19002B   25285.62060241  .00000515  00000+0  77721-4 0  9994
2 43923  86.6037  97.0820 0002660  75.2376 284.9136 14.72256150362820
IRIDIUM 168             
1 43924U 19002C   25285.52114516  .00000022  00000+0  61307-6 0  9997
2 43924  86.3917  97.2146 0002159  89.4282 270.7161 14.34217613353475
IRIDIUM 173             
1 43925U 19002D   25285.50845844  .00000042  00000+0  79640-5 0  9991
2 43925  86.3913  97.1188 0002291  88.9843 271.1615 14.34218063353458
IRIDIUM 169             
1 43926U 19002E   25285.49459043  .00000284  00000+0  86471-4 0  9999
2 43926  86.4209 128.7687 0003245  72.0835 288.0717 14.38610303354614
IRIDIUM 172             
1 43927U 19002F   25285.50211585  .00000027  00000+0  24557-5 0  9992
2 43927  86.3913  97.1286 0002207  96.6027 263.5420 14.34217725353460
IRIDIUM 175             
1 43928U 19002G   25285.61577352  .00001590  00000+0  24810-3 0  9998
2 43928  86.1518  42.9172 0001695  71.7134 288.4267 14.72258906362817
IRIDIUM 171             
1 43929U 19002H   25285.55285739 -.00000070  00000+0 -31948-4 0  9992
2 43929  86.3921  97.3866 0001766  82.5519 277.5877 14.34217194353467
IRIDIUM 170             
1 43930U 19002J   25285.55881187  .00000561  00000+0  85043-4 0  9991
2 43930  86.6037  97.1118 0002248  87.5445 272.6029 14.72253710362828
IRIDIUM 167             
1 43931U 19002K   25285.47674550  .00000063  00000+0  15577-4 0  9999
2 43931  86.3913  97.1596 0002021  77.5622 282.5800 14.34218067353454
IRIDIUM 181             
1 56726U 23068S   25285.60063843  .00000435  00000+0  12325-3 0  9994
2 56726  86.4551 160.2543 0001589  85.2824 274.8558 14.43302731126725
IRIDIUM 177             
1 56727U 23068T   25285.49509322  .00000823  00000+0  10486-3 0  9996
2 56727  86.1922  86.4202 0002108  87.9503 272.1960 14.80232213129726
IRIDIUM 174             
1 56728U 23068U   25285.61446077  .00000545  00000+0  82595-4 0  9990
2 56728  86.6045  97.2111 0002781  94.3410 265.8124 14.72247865129599
IRIDIUM 178             
1 56729U 23068V   25285.28138948  .00001485  00000+0  19196-3 0  9999
2 56729  86.6529 128.9840 0002206  72.3878 287.7584 14.80238565129694
IRIDIUM 179             
1 56730U 23068W   25285.07320201  .00001521  00000+0  19680-3 0  9992
2 56730  86.6784 137.3035 0002219  64.5455 295.5996 14.80226872129666
